[{"OBJECT_NAME":"LIZZIESAT-1 (LS-1)","OBJECT_ID":"2024-043AL","EPOCH":"2026-03-09T21:24:55.126944","MEAN_MOTION":15.26635712,"ECCENTRICITY":0.00099234,"INCLINATION":97.5461,"RA_OF_ASC_NODE":203.4772,"ARG_OF_PERICENTER":229.9925,"MEAN_ANOMALY":130.0443,"EPHEMERIS_TYPE":0,"CLASSIFICATION_TYPE":"U","NORAD_CAT_ID":59132,"ELEMENT_SET_NO":999,"REV_AT_EPOCH":11178,"BSTAR":0.0002232873,"MEAN_MOTION_DOT":5.784e-5,"MEAN_MOTION_DDOT":0},{"OBJECT_NAME":"STARLINK-32405","OBJECT_ID":"2024-191R","EPOCH":"2026-03-09T05:49:13.932768","MEAN_MOTION":15.27567531,"ECCENTRICITY":0.00033986,"INCLINATION":43.0024,"RA_OF_ASC_NODE":160.8737,"ARG_OF_PERICENTER":286.9855,"MEAN_ANOMALY":73.0624,"EPHEMERIS_TYPE":0,"CLASSIFICATION_TYPE":"U","NORAD_CAT_ID":61636,"ELEMENT_SET_NO":999,"REV_AT_EPOCH":7742,"BSTAR":-2.9301245e-5,"MEAN_MOTION_DOT":-1.069e-5,"MEAN_MOTION_DDOT":0}]
